ALOS-2                  
1 39766U 14029A   26162.93144325  .00000772  00000+0  11027-3 0  9994
2 39766  97.9211 260.1701 0001623  89.6554 270.4844 14.79471249650804
KAZEOSAT 2              
1 40010U 14033A   26162.90856495  .00000746  00000+0  92297-4 0  9998
2 40010  97.5415   2.7998 0008320 347.8064  12.2949 14.85463952648178
HODOYOSHI-4             
1 40011U 14033B   26162.99105414  .00001303  00000+0  14662-3 0  9995
2 40011  97.5454 348.0648 0022885 326.2566  33.7193 14.88115856648034
DEIMOS-2                
1 40013U 14033D   26162.95803729  .00001268  00000+0  12492-3 0  9996
2 40013  97.5847  37.6312 0001950  53.8342 306.3059 14.93714722636946
HODOYOSHI-3             
1 40015U 14033F   26162.93063243  .00000858  00000+0  10489-3 0  9993
2 40015  97.6412 326.1829 0033176  14.5992 345.6175 14.85377849646847
SPOT 7                  
1 40053U 14034A   26162.90791573  .00000302  00000+0  70961-4 0  9993
2 40053  98.0633 225.5354 0001178  88.4979 271.6357 14.60953476636361
SKYSAT-B                
1 40072U 14037D   26162.94734596  .00001124  00000+0  12912-3 0  9997
2 40072  98.3837 121.6137 0004366 304.2051  55.8750 14.88014477645186
WORLDVIEW-3 (WV-3)      
1 40115U 14048A   26162.91168551  .00000693  00000+0  87505-4 0  9997
2 40115  97.8566 237.8173 0001401  33.4544 326.6759 14.85013080641126
GAOFEN-2                
1 40118U 14049A   26162.97363117 -.00000100  00000+0 -60194-5 0  9993
2 40118  98.0114 227.1856 0005916 247.6526 112.4060 14.80891257638469
YAOGAN-21               
1 40143U 14053A   26162.98347887  .00005682  00000+0  22141-3 0  9999
2 40143  97.1484 203.4422 0009877 108.8575 251.3736 15.26294247654160
YAOGAN-22               
1 40275U 14063A   26162.93816515 -.00000046  00000+0  93118-6 0  9995
2 40275 100.7717 314.1243 0006221 197.1512 162.9390 13.15530954559126
ASNARO                  
1 40298U 14070A   26162.95653701  .00006754  00000+0  32250-3 0  9994
2 40298  97.3455 239.2123 0005115 182.6607 177.4602 15.19354631643213
YAOGAN-24               
1 40310U 14072A   26162.93070837  .00000369  00000+0  61011-4 0  9996
2 40310  98.1474 300.2247 0012597 282.4706  77.5094 14.76215273622947
CBERS 4                 
1 40336U 14079A   26162.94896831 -.00000140  00000+0 -33881-4 0  9995
2 40336  98.3538 219.9446 0001952  69.1513 290.9882 14.35506840603206
YAOGAN-26               
1 40362U 14088A   26162.95969931  .00020039  00000+0  39601-3 0  9999
2 40362  97.0644 163.2914 0006401  79.3125 280.8846 15.47139150636895
SMAP                    
1 40376U 15003A   26162.95165949  .00000361  00000+0  78946-4 0  9991
2 40376  98.1276 170.1203 0001285  94.5299 265.6050 14.63361986606859
KOMPSAT-3A              
1 40536U 15014A   26162.96126047  .00022493  00000+0  32901-3 0  9998
2 40536  97.6880 153.9419 0056037 193.4490 166.5273 15.53753348621004
SENTINEL-2A             
1 40697U 15028A   26162.96992522 -.00000154  00000+0 -42052-4 0  9991
2 40697  98.5685 237.8952 0001102  87.4418 272.6891 14.30813168572982
GAOFEN-8                
1 40701U 15030A   26162.97402252  .00022033  00000+0  45600-3 0  9996
2 40701  97.6910 356.0328 0008285 205.4834 154.6007 15.45769013610643
CARBONITE 1 (CBNT-1)    
1 40718U 15032D   26162.98917587  .00002030  00000+0  25227-3 0  9997
2 40718  97.6508 341.2739 0013475 316.7464  43.2691 14.83573103588570
YAOGAN-27               
1 40878U 15040A   26162.93516443  .00000319  00000+0  95224-3 0  9996
2 40878 100.1149 149.5453 0007554 223.2266 136.8256 13.16070685516976
GAOFEN-9 01             
1 40894U 15047A   26163.00172600  .00000810  00000+0  10562-3 0  9991
2 40894  97.6277 198.9320 0028011 154.2607 206.0008 14.82873714579422
YAOGAN-28               
1 41026U 15064A   26162.95065343  .00006656  00000+0  25086-3 0  9997
2 41026  97.3061 301.3195 0010147 201.9128 158.1679 15.27354793589880
YAOGAN-29               
1 41038U 15069A   26162.98276297  .00000717  00000+0  94700-4 0  9992
2 41038  98.0036 191.6074 0002833  63.9984 296.1520 14.83082389569851
KENT RIDGE 1            
1 41167U 15077B   26162.07320463  .00003829  00000+0  12612-3 0  9997
2 41167  14.9802 311.4591 0008233 152.2159 207.8603 15.23095182580162
GAOFEN-4                
1 41194U 15083A   26162.92930071 -.00000319  00000+0  00000+0 0  9996
2 41194   0.3423  83.8542 0004272 111.9039 144.7743  1.00271776 38475
JASON-3                 
1 41240U 16002A   26162.95409042 -.00000052  00000+0  40086-4 0  9999
2 41240  66.0397 136.8370 0008566 273.0048  86.9990 12.87627961486571
SENTINEL-3A             
1 41335U 16011A   26162.95682227  .00000075  00000+0  48869-4 0  9993
2 41335  98.6249 230.4154 0001375 103.4288 256.7046 14.26738470537318
ZIYUAN 3-02 (ZY 3-02)   
1 41556U 16033A   26162.92821610  .00004382  00000+0  19795-3 0  9990
2 41556  97.3840 238.8030 0011405 310.8531  49.1715 15.21429971557184
CARTOSAT-2C             
1 41599U 16040A   26162.92315411  .00002767  00000+0  13431-3 0  9998
2 41599  97.4488 222.9735 0010082 147.5057 212.6801 15.19272061552916
