OBJECT_NAME,OBJECT_ID,EPOCH,MEAN_MOTION,ECCENTRICITY,INCLINATION,RA_OF_ASC_NODE,ARG_OF_PERICENTER,MEAN_ANOMALY,EPHEMERIS_TYPE,CLASSIFICATION_TYPE,NORAD_CAT_ID,ELEMENT_SET_NO,REV_AT_EPOCH,BSTAR,MEAN_MOTION_DOT,MEAN_MOTION_DDOT
ALOS-2,2014-029A,2026-06-11T22:21:16.696800,14.79471249,.00016238,97.9211,260.1701,89.6554,270.4844,0,U,39766,999,65080,.11027159E-3,.772E-5,0
KAZEOSAT 2,2014-033A,2026-06-11T21:48:20.011680,14.85463952,.00083201,97.5415,2.7998,347.8064,12.2949,0,U,40010,999,64817,.92296634E-4,.746E-5,0
HODOYOSHI-4,2014-033B,2026-06-11T23:47:07.077696,14.88115856,.00228859,97.5454,348.0648,326.2566,33.7193,0,U,40011,999,64803,.14661827E-3,.1303E-4,0
DEIMOS-2,2014-033D,2026-06-11T22:59:34.421856,14.93714722,.00019508,97.5847,37.6312,53.8342,306.3059,0,U,40013,999,63694,.12491897E-3,.1268E-4,0
HODOYOSHI-3,2014-033F,2026-06-11T22:20:06.641952,14.85377849,.0033176,97.6412,326.1829,14.5992,345.6175,0,U,40015,999,64684,.10488786E-3,.858E-5,0
SPOT 7,2014-034A,2026-06-11T21:47:23.919072,14.60953476,.00011784,98.0633,225.5354,88.4979,271.6357,0,U,40053,999,63636,.70960832E-4,.302E-5,0
SKYSAT-B,2014-037D,2026-06-11T22:44:10.690944,14.88014477,.00043665,98.3837,121.6137,304.2051,55.8750,0,U,40072,999,64518,.12912161E-3,.1124E-4,0
WORLDVIEW-3 (WV-3),2014-048A,2026-06-11T21:52:49.628064,14.85013080,.00014015,97.8566,237.8173,33.4544,326.6759,0,U,40115,999,64112,.87504708E-4,.693E-5,0
GAOFEN-2,2014-049A,2026-06-11T23:22:01.733088,14.80891257,.00059164,98.0114,227.1856,247.6526,112.4060,0,U,40118,999,63846,-.6019421E-5,-.1E-5,0
YAOGAN-21,2014-053A,2026-06-11T23:36:12.574368,15.26294247,.00098772,97.1484,203.4422,108.8575,251.3736,0,U,40143,999,65416,.2214119E-3,.5682E-4,0
YAOGAN-22,2014-063A,2026-06-11T22:30:57.468960,13.15530954,.00062213,100.7717,314.1243,197.1512,162.9390,0,U,40275,999,55912,.931182E-6,-.46E-6,0
ASNARO,2014-070A,2026-06-11T22:57:24.797664,15.19354631,.00051151,97.3455,239.2123,182.6607,177.4602,0,U,40298,999,64321,.32250123E-3,.6754E-4,0
YAOGAN-24,2014-072A,2026-06-11T22:20:13.203168,14.76215273,.00125974,98.1474,300.2247,282.4706,77.5094,0,U,40310,999,62294,.61010698E-4,.369E-5,0
CBERS 4,2014-079A,2026-06-11T22:46:30.861984,14.35506840,.00019528,98.3538,219.9446,69.1513,290.9882,0,U,40336,999,60320,-.33880767E-4,-.14E-5,0
YAOGAN-26,2014-088A,2026-06-11T23:01:58.020384,15.47139150,.00064013,97.0644,163.2914,79.3125,280.8846,0,U,40362,999,63689,.39600712E-3,.20039E-3,0
SMAP,2015-003A,2026-06-11T22:50:23.379936,14.63361986,.0001285,98.1276,170.1203,94.5299,265.6050,0,U,40376,999,60685,.78945686E-4,.361E-5,0
KOMPSAT-3A,2015-014A,2026-06-11T23:04:12.904608,15.53753348,.00560371,97.6880,153.9419,193.4490,166.5273,0,U,40536,999,62100,.32901307E-3,.22493E-3,0
SENTINEL-2A,2015-028A,2026-06-11T23:16:41.539008,14.30813168,.00011023,98.5685,237.8952,87.4418,272.6891,0,U,40697,999,57298,-.42051866E-4,-.154E-5,0
GAOFEN-8,2015-030A,2026-06-11T23:22:35.545728,15.45769013,.0008285,97.6910,356.0328,205.4834,154.6007,0,U,40701,999,61064,.45599542E-3,.22033E-3,0
CARBONITE 1 (CBNT-1),2015-032D,2026-06-11T23:44:24.795168,14.83573103,.00134753,97.6508,341.2739,316.7464,43.2691,0,U,40718,999,58857,.25226544E-3,.203E-4,0
YAOGAN-27,2015-040A,2026-06-11T22:26:38.206752,13.16070685,.00075546,100.1149,149.5453,223.2266,136.8256,0,U,40878,999,51697,.95224482E-3,.319E-5,0
GAOFEN-9 01,2015-047A,2026-06-12T00:02:29.126400,14.82873714,.00280116,97.6277,198.9320,154.2607,206.0008,0,U,40894,999,57942,.10561703E-3,.81E-5,0
YAOGAN-28,2015-064A,2026-06-11T22:48:56.456352,15.27354793,.00101472,97.3061,301.3195,201.9128,158.1679,0,U,41026,999,58988,.25086196E-3,.6656E-4,0
YAOGAN-29,2015-069A,2026-06-11T23:35:10.720608,14.83082389,.00028336,98.0036,191.6074,63.9984,296.1520,0,U,41038,999,56985,.94699633E-4,.717E-5,0
KENT RIDGE 1,2015-077B,2026-06-11T01:45:24.880032,15.23095182,.00082332,14.9802,311.4591,152.2159,207.8603,0,U,41167,999,58016,.12611853E-3,.3829E-4,0
GAOFEN-4,2015-083A,2026-06-11T22:18:11.581344,1.00271776,.00042722,0.3423,83.8542,111.9039,144.7743,0,U,41194,999,3847,0,-.319E-5,0
JASON-3,2016-002A,2026-06-11T22:53:53.412288,12.87627961,.00085667,66.0397,136.8370,273.0048,86.9990,0,U,41240,999,48657,.40085697E-4,-.52E-6,0
SENTINEL-3A,2016-011A,2026-06-11T22:57:49.444128,14.26738470,.0001375,98.6249,230.4154,103.4288,256.7046,0,U,41335,999,53731,.48868934E-4,.75E-6,0
ZIYUAN 3-02 (ZY 3-02),2016-033A,2026-06-11T22:16:37.871040,15.21429971,.0011405,97.3840,238.8030,310.8531,49.1715,0,U,41556,999,55718,.19795468E-3,.4382E-4,0
CARTOSAT-2C,2016-040A,2026-06-11T22:09:20.515104,15.19272061,.00100827,97.4488,222.9735,147.5057,212.6801,0,U,41599,999,55291,.13430941E-3,.2767E-4,0
